SL-16 R/B               
1 28353U 04021B   25199.46544667 -.00000216  00000+0 -87761-4 0  9999
2 28353  71.0020   4.0135 0004366   6.6488 353.4691 14.14556262 89719
CZ-4B R/B               
1 28415U 04035C   25199.20049531  .00005584  00000+0  22534-3 0  9992
2 28415  97.3783 231.6453 0037266  78.8282 281.7141 15.24547314144135
CZ-2C R/B               
1 28480U 04046B   25199.21011659  .00000110  00000+0  55790-4 0  9998
2 28480  98.1927 123.8468 0140636 127.9509 233.4478 14.26843940 75065
ARIANE 5 R/B            
1 28499U 04049H   25199.40271004  .00000572  00000+0  70560-4 0  9998
2 28499  98.2377 354.5900 0085898  31.0191 329.6054 14.84570703111044
CZ-2D R/B               
1 28738U 05024B   25198.99626248  .00016027  00000+0  34444-3 0  9997
2 28738  97.3681 203.5109 0007387 148.6345 211.5346 15.44726748103408
ALOS (DAICHI)           
1 28931U 06002A   25199.44404005  .00001094  00000+0  19585-3 0  9992
2 28931  98.0858 152.2642 0001145  52.9301 307.2009 14.68806409 39465
H-2A R/B                
1 28932U 06002B   25199.34459291  .00004545  00000+0  26414-3 0  9992
2 28932  98.2154 322.6713 0057175 317.0057  42.6710 15.11299238 59080
RESURS-DK 1             
1 29228U 06021A   25199.19381185  .00001890  00000+0  11888-3 0  9990
2 29228  69.9327 122.7971 0002585 158.0552 202.0725 15.11097868 52108
CZ-4B R/B               
1 29507U 06046C   25199.13636331  .00003587  00000+0  19816-3 0  9991
2 29507  97.5934 239.6703 0035244   1.2510 358.8803 15.14042794 24568
CZ-2C R/B               
1 31114U 07010B   25199.18748312  .00000077  00000+0  54772-4 0  9990
2 31114  98.3829 319.4012 0057935 255.7995 103.6742 14.20137038946441
COSMO-SKYMED 1          
1 31598U 07023A   25199.47762448  .00006240  00000+0  58804-3 0  9995
2 31598  97.8893  24.0371 0001578  86.3604 273.7796 14.94173208979967
GENESIS 2               
1 31789U 07028A   25198.75615211  .00145764  14424-4  55271-3 0  9997
2 31789  64.4711 279.8037 0026200 303.9345  55.9321 15.86980239998952
COSMOS 2428             
1 31792U 07029A   25199.47948908  .00000340  00000+0  20817-3 0  9992
2 31792  70.9430 334.9845 0005389 242.3680 117.6895 14.12886622931092
SL-16 R/B               
1 31793U 07029B   25198.78296257  .00000109  00000+0  81108-4 0  9993
2 31793  70.9774 306.1552 0002333 281.4129 243.3371 14.14792753932144
KORONAS-FOTON           
1 33504U 09003A   25198.89174626  .00006006  00000+0  16386-3 0  9993
2 33504  82.4332 158.7356 0009657 280.8731  79.1426 15.37176574909609
CZ-2C R/B               
1 37731U 11030B   25199.47345193  .00001081  00000+0  14534-3 0  9997
2 37731  97.8166 157.1403 0054393  33.8733  77.7847 14.80280277755435
H-2A R/B                
1 38341U 12025E   25199.40104375  .00002757  00000+0  26514-3 0  9990
2 38341  98.4376 143.6628 0046326   0.4160 359.7088 14.93171350713319
SHIJIAN-16 (SJ-16)      
1 39358U 13057A   25199.51827543  .00001128  00000+0  11542-3 0  9992
2 39358  74.9714 268.0637 0017925 319.4664  40.5188 14.91446500636657
SL-4 R/B                
1 39679U 14021B   25198.86628310  .00005913  00000+0  16597-3 0  9999
2 39679  51.6108  36.3761 0111368 331.7231  27.7732 15.32115058620190
ALOS-2                  
1 39766U 14029A   25199.50632099  .00001195  00000+0  16693-3 0  9990
2 39766  97.9229 296.4604 0001574  97.8772 262.2618 14.79467509602275
YAOGAN-29               
1 41038U 15069A   25199.50504634  .00000347  00000+0  49748-4 0  9999
2 41038  98.0337 222.0706 0002549  60.0334 300.1132 14.82668296521171
ASTRO-H (HITOMI)        
1 41337U 16012A   25198.88910148  .00002128  00000+0  12836-3 0  9997
2 41337  31.0005  69.5625 0009808 135.0532 225.0901 15.08178490516730
HXMT (HUIYAN)           
1 42758U 17034A   25199.51024654  .00003205  00000+0  18298-3 0  9994
2 42758  43.0139 235.1646 0034843 199.4370 160.5150 15.14109452447027
CZ-2C R/B               
1 43521U 18054D   25199.06476330  .00026673  00000+0  38871-3 0  9991
2 43521  35.1384  83.9725 0030976 186.3042 173.7298 15.54137598391956
SAOCOM 1A               
1 43641U 18076A   25199.49887460  .00000323  00000+0  47063-4 0  9993
2 43641  97.8891  26.0258 0001423  92.2650 267.8726 14.82164555366676
H-2A R/B                
1 43682U 18084L   25199.00964248  .00012675  00000+0  41530-3 0  9999
2 43682  98.8795   3.3377 0032480 111.6835 248.7866 15.31323699369759
SAOCOM 1B               
1 46265U 20059A   25199.53014168  .00000305  00000+0  44880-4 0  9998
2 46265  97.8895  25.1605 0001506  88.5124 271.6261 14.82153364264071
CSS (TIANHE)            
1 48274U 21035A   25199.40252114  .00009365  00000+0  13116-3 0  9998
2 48274  41.4639 191.3624 0008285 301.1843  58.8181 15.56803465241026
COSMOS 2550             
1 48865U 21056A   25199.55256781  .00004259  00000+0  13523-3 0  9996
2 48865  67.1432  29.2199 0008301 269.5698  90.4505 15.33826201227561
CZ-2C R/B               
1 52794U 22058K   25198.92570196  .00012908  00000+0  30188-3 0  9990
2 52794  50.1932  72.2760 0055354 302.6134  56.9495 15.40877425173792
GSLV R/B                
1 54149U 22138AN  25199.17809625  .00001469  00000+0  13155-3 0  9990
2 54149  87.3771 244.8822 0019664 284.7546  75.1505 14.94949405148870
XRISM                   
1 57800U 23137A   25199.54857126  .00004171  00000+0  25618-3 0  9997
2 57800  31.0033 354.2514 0007935 208.4952 151.5252 15.08342387102454
ACS3                    
1 59588U 24077B   25199.46107416  .00011076  00000+0  10628-1 0  9992
2 59588  97.4450 187.1265 0076156  56.6844 304.1576 13.79028469 61804
